NORAD_CAT_ID,OBJECT_NAME,OBJECT_TYPE,EPOCH,MEAN_MOTION,ECCENTRICITY,INCLINATION,RA_OF_ASC_NODE,ARG_OF_PERICENTER,MEAN_ANOMALY,BSTAR,MEAN_MOTION_DOT,MEAN_MOTION_DDOT,TLE_LINE0,TLE_LINE1,TLE_LINE2,SEMIMAJOR_AXIS,PERIOD,APOGEE,PERIGEE,DECAYED
49748.0,STARLINK-3248,PAYLOAD,2023-08-08 23:55:39,15.08855908,0.0001021,53.2168,65.5224,97.3176,262.7932,0.00043638,6.667e-05,0.0,0 STARLINK-3248,1 49748U 21115AA  23220.99698477  .00006667  00000-0  43638-3 0  9992,2 49748  53.2168  65.5224 0001021  97.3176 262.7932 15.08855908 94182,6917.832,95.437,540.403,538.99,0.0
49748.0,STARLINK-3248,PAYLOAD,2023-08-09 06:17:12,15.08845987,0.0001268,53.2171,64.3315,93.8283,266.2854,0.00015293,2.147e-05,0.0,0 STARLINK-3248,1 49748U 21115AA  23221.26194708  .00002147  00000-0  15293-3 0  9996,2 49748  53.2171  64.3315 0001268  93.8283 266.2854 15.08845987 94220,6917.862,95.437,540.604,538.85,0.0
49748.0,STARLINK-3248,PAYLOAD,2023-08-09 22:11:03,15.08839834,9.75e-05,53.2175,61.3612,90.324,269.7864,-7.8519e-05,-1.537e-05,0.0,0 STARLINK-3248,1 49748U 21115AA  23221.92434788 -.00001537  00000-0 -78519-4 0  9999,2 49748  53.2175  61.3612 0000975  90.3240 269.7864 15.08839834 94324,6917.881,95.438,540.42,539.071,0.0
49748.0,STARLINK-3248,PAYLOAD,2023-08-11 12:20:19,15.08841183,0.0001569,53.2166,54.2226,86.3351,273.782,0.00015557,2.189e-05,0.0,0 STARLINK-3248,1 49748U 21115AA  23223.51411167  .00002189  00000-0  15557-3 0  9996,2 49748  53.2166  54.2226 0001569  86.3351 273.7820 15.08841183 94567,6917.877,95.437,540.827,538.656,0.0
49748.0,STARLINK-3248,PAYLOAD,2023-08-12 18:32:38,15.08838689,0.0001105,53.2166,48.5732,94.9482,265.1636,-2.2838e-06,-3.24e-06,0.0,0 STARLINK-3248,1 49748U 21115AA  23224.77267268 -.00000324  00000-0 -22838-5 0  9999,2 49748  53.2166  48.5732 0001105  94.9482 265.1636 15.08838689 94759,6917.884,95.438,540.514,538.985,0.0
49748.0,STARLINK-3248,PAYLOAD,2023-08-13 19:58:49,15.08843007,9.44e-05,53.2176,43.8158,88.7751,271.335,5.5233e-05,5.91e-06,0.0,0 STARLINK-3248,1 49748U 21115AA  23225.83251221  .00000591  00000-0  55233-4 0  9997,2 49748  53.2176  43.8158 0000944  88.7751 271.3350 15.08843007 94910,6917.871,95.437,540.389,539.083,0.0
49748.0,STARLINK-3248,PAYLOAD,2023-08-14 21:24:58,15.08847789,0.000105,53.2175,39.0579,82.9572,277.154,0.00011385,1.525e-05,0.0,0 STARLINK-3248,1 49748U 21115AA  23226.89234713  .00001525  00000-0  11385-3 0  9998,2 49748  53.2175  39.0579 0001050  82.9572 277.1540 15.08847789 95073,6917.857,95.437,540.448,538.995,0.0
49748.0,STARLINK-3248,PAYLOAD,2023-08-15 18:04:59,15.08842087,0.0001155,53.2167,35.1906,88.5007,271.6118,9.0647e-05,1.155e-05,0.0,0 STARLINK-3248,1 49748U 21115AA  23227.75347140  .00001155  00000-0  90647-4 0  9991,2 49748  53.2167  35.1906 0001155  88.5007 271.6118 15.08842087 95207,6917.874,95.437,540.538,538.94,0.0
49748.0,STARLINK-3248,PAYLOAD,2023-08-16 21:06:33,15.08843893,0.0001135,53.2153,30.1381,88.5121,271.6001,5.0105e-05,5.1e-06,0.0,0 STARLINK-3248,1 49748U 21115AA  23228.87955121  .00000510  00000-0  50105-4 0  9998,2 49748  53.2153  30.1381 0001135  88.5121 271.6001 15.08843893 95374,6917.868,95.437,540.519,538.948,0.0
49748.0,STARLINK-3248,PAYLOAD,2023-08-18 03:18:53,15.08838561,0.0001228,53.2166,24.488,82.1838,277.9294,6.3032e-05,7.15e-06,0.0,0 STARLINK-3248,1 49748U 21115AA  23230.13811527  .00000715  00000-0  63032-4 0  9991,2 49748  53.2166  24.4880 0001228  82.1838 277.9294 15.08838561 95566,6917.885,95.438,540.599,538.9,0.0
49748.0,STARLINK-3248,PAYLOAD,2023-08-19 03:09:41,15.08825793,0.0001561,53.2154,20.0271,84.8566,275.2604,-4.4871e-05,-1.002e-05,0.0,0 STARLINK-3248,1 49748U 21115AA  23231.13173039 -.00001002  00000-0 -44871-4 0  9993,2 49748  53.2154  20.0271 0001561  84.8566 275.2604 15.08825793 95712,6917.924,95.438,540.869,538.709,0.0
49748.0,STARLINK-3248,PAYLOAD,2023-08-19 17:28:09,15.08835481,0.0001891,53.2157,17.3518,75.0463,285.0739,7.1923e-05,8.57e-06,0.0,0 STARLINK-3248,1 49748U 21115AA  23231.72788502  .00000857  00000-0  71923-4 0  9998,2 49748  53.2157  17.3518 0001891  75.0463 285.0739 15.08835481 95805,6917.894,95.438,541.067,538.451,0.0
49748.0,STARLINK-3248,PAYLOAD,2023-08-21 02:51:14,15.08836566,9.17e-05,53.2184,11.105,83.671,276.4387,0.00018525,2.661e-05,0.0,0 STARLINK-3248,1 49748U 21115AA  23233.11892000  .00002661  00000-0  18525-3 0  9995,2 49748  53.2184  11.1050 0000917  83.6710 276.4387 15.08836566 96018,6917.891,95.438,540.39,539.122,0.0
49748.0,STARLINK-3248,PAYLOAD,2023-08-22 12:14:20,15.08843647,0.0001272,53.2176,4.8621,92.6455,267.4682,-3.3925e-05,-8.28e-06,0.0,0 STARLINK-3248,1 49748U 21115AA  23234.50996273 -.00000828  00000-0 -33925-4 0  9993,2 49748  53.2176   4.8621 0001272  92.6455 267.4682 15.08843647 96222,6917.869,95.437,540.614,538.854,0.0
49748.0,STARLINK-3248,PAYLOAD,2023-08-24 11:55:54,15.08840281,0.0001195,53.2195,355.9424,99.6989,260.4138,0.0001053,1.388e-05,0.0,0 STARLINK-3248,1 49748U 21115AA  23236.49716327  .00001388  00000-0  10530-3 0  9999,2 49748  53.2195 355.9424 0001195  99.6989 260.4138 15.08840281 95417,6917.88,95.438,540.571,538.918,0.0
49748.0,STARLINK-3248,PAYLOAD,2023-08-25 07:00:32,15.08841448,0.0001143,53.2193,352.3741,96.3647,263.7475,8.094e-05,1.001e-05,0.0,0 STARLINK-3248,1 49748U 21115AA  23237.29204354  .00001001  00000-0  80940-4 0  9995,2 49748  53.2193 352.3741 0001143  96.3647 263.7475 15.08841448 96648,6917.876,95.437,540.532,538.95,0.0
49748.0,STARLINK-3248,PAYLOAD,2023-08-25 13:22:05,15.08838964,0.0001099,53.218,351.184,88.6191,271.4927,5.6819e-05,6.17e-06,0.0,0 STARLINK-3248,1 49748U 21115AA  23237.55700715  .00000617  00000-0  56819-4 0  9996,2 49748  53.2180 351.1840 0001099  88.6191 271.4927 15.08838964 95577,6917.884,95.438,540.509,538.988,0.0
49748.0,STARLINK-3248,PAYLOAD,2023-08-26 10:02:06,15.08838589,0.0001162,53.218,347.3191,78.2003,281.9119,3.4771e-05,2.66e-06,0.0,0 STARLINK-3248,1 49748U 21115AA  23238.41812967  .00000266  00000-0  34771-4 0  9998,2 49748  53.2180 347.3191 0001162  78.2003 281.9119 15.08838589 96811,6917.885,95.438,540.554,538.946,0.0
49748.0,STARLINK-3248,PAYLOAD,2023-08-26 11:37:29,15.08839101,0.0001166,53.218,347.022,73.3285,286.7835,3.9476e-05,3.4e-06,0.0,0 STARLINK-3248,1 49748U 21115AA  23238.48436933  .00000340  00000-0  39476-4 0  9990,2 49748  53.2180 347.0220 0001166  73.3285 286.7835 15.08839101 95710,6917.883,95.438,540.555,538.942,0.0
49748.0,STARLINK-3248,PAYLOAD,2023-08-27 08:17:30,15.08841443,0.0001222,53.2178,343.1556,76.9617,283.1511,0.00010239,1.342e-05,0.0,0 STARLINK-3248,1 49748U 21115AA  23239.34548617  .00001342  00000-0  10239-3 0  9997,2 49748  53.2178 343.1556 0001222  76.9617 283.1511 15.08841443 95845,6917.876,95.437,540.586,538.896,0.0
49748.0,STARLINK-3248,PAYLOAD,2023-08-27 14:39:02,15.0884397,0.000117,53.2178,341.9659,83.321,276.7916,0.00011611,1.561e-05,0.0,0 STARLINK-3248,1 49748U 21115AA  23239.61044374  .00001561  00000-0  11611-3 0  9996,2 49748  53.2178 341.9659 0001170  83.3210 276.7916 15.08843970 96999,6917.868,95.437,540.543,538.924,0.0
49748.0,STARLINK-3248,PAYLOAD,2023-08-28 01:46:44,15.08839047,0.0001299,53.2182,339.8862,69.2614,290.8517,6.2952e-05,7.14e-06,0.0,0 STARLINK-3248,1 49748U 21115AA  23240.07412933  .00000714  00000-0  62952-4 0  9992,2 49748  53.2182 339.8862 0001299  69.2614 290.8517 15.08839047 97062,6917.883,95.438,540.647,538.85,0.0
49748.0,STARLINK-3248,PAYLOAD,2023-08-28 12:54:26,15.08839347,0.0001283,53.2177,337.8032,85.3297,274.7842,5.9979e-05,6.67e-06,0.0,0 STARLINK-3248,1 49748U 21115AA  23240.53780887  .00000667  00000-0  59979-4 0  9991,2 49748  53.2177 337.8032 0001283  85.3297 274.7842 15.08839347 96022,6917.882,95.438,540.635,538.86,0.0
49748.0,STARLINK-3248,PAYLOAD,2023-08-29 06:23:40,15.08842884,0.0001284,53.2172,334.5314,86.6548,273.4591,3.8108e-05,3.19e-06,0.0,0 STARLINK-3248,1 49748U 21115AA  23241.26644653  .00000319  00000-0  38108-4 0  9997,2 49748  53.2172 334.5314 0001284  86.6548 273.4591 15.08842884 97240,6917.872,95.437,540.625,538.848,0.0
49748.0,STARLINK-3248,PAYLOAD,2023-08-29 12:45:13,15.08840056,0.000116,53.2175,333.3431,72.5013,287.6106,6.0447e-05,6.74e-06,0.0,0 STARLINK-3248,1 49748U 21115AA  23241.53140761  .00000674  00000-0  60447-4 0  9993,2 49748  53.2175 333.3431 0001160  72.5013 287.6106 15.08840056 96173,6917.88,95.438,540.548,538.943,0.0
49748.0,STARLINK-3248,PAYLOAD,2023-08-30 06:14:28,15.08836959,0.0001298,53.2173,330.0718,88.0839,272.0302,5.8856e-05,6.49e-06,0.0,0 STARLINK-3248,1 49748U 21115AA  23242.26004918  .00000649  00000-0  58856-4 0  9990,2 49748  53.2173 330.0718 0001298  88.0839 272.0302 15.08836959 97391,6917.89,95.438,540.653,538.857,0.0
49748.0,STARLINK-3248,PAYLOAD,2023-08-30 12:36:00,15.08838336,0.0001313,53.2171,328.882,90.4356,269.6786,6.6289e-05,7.67e-06,0.0,0 STARLINK-3248,1 49748U 21115AA  23242.52500835  .00000767  00000-0  66289-4 0  9998,2 49748  53.2171 328.8820 0001313  90.4356 269.6786 15.08838336 96328,6917.885,95.438,540.659,538.842,0.0
49748.0,STARLINK-3248,PAYLOAD,2023-08-31 06:05:15,15.08838393,0.0001227,53.2172,325.6107,93.9204,266.1929,4.0567e-05,3.58e-06,0.0,0 STARLINK-3248,1 49748U 21115AA  23243.25364907  .00000358  00000-0  40567-4 0  9994,2 49748  53.2172 325.6107 0001227  93.9204 266.1929 15.08838393 96432,6917.885,95.438,540.599,538.901,0.0
49748.0,STARLINK-3248,PAYLOAD,2023-09-01 12:17:34,15.08840086,0.0001203,53.2171,319.9613,93.6788,266.4341,5.2598e-05,5.49e-06,0.0,0 STARLINK-3248,1 49748U 21115AA  23244.51220903  .00000549  00000-0  52598-4 0  9990,2 49748  53.2171 319.9613 0001203  93.6788 266.4341 15.08840086 97734,6917.88,95.438,540.577,538.913,0.0
49748.0,STARLINK-3248,PAYLOAD,2023-09-02 12:08:21,15.08840358,0.0001497,53.2206,315.5023,95.7805,264.3357,6.7708e-05,7.9e-06,0.0,0 STARLINK-3248,1 49748U 21115AA  23245.50580951  .00000790  00000-0  67708-4 0  9999,2 49748  53.2206 315.5023 0001497  95.7805 264.3357 15.08840358 96777,6917.879,95.438,540.78,538.709,0.0
